POPACS 2                
1 39269U 13055E   26068.50954283  .00029878  00000+0  51935-3 0  9990
2 39269  80.9893 258.0384 0430745 153.4128 208.9906 14.87802959648370
STARLINK-31801          
1 59647U 24082S   26068.21146506  .00006977  00000+0  26307-3 0  9993
2 59647  43.0017 142.9476 0000763 260.5473  99.5293 15.27548792104781
